[{"OBJECT_NAME":"STARLINK-2029","OBJECT_ID":"2021-036AW","EPOCH":"2026-03-10T00:00:02.999808","MEAN_MOTION":15.21612256,"ECCENTRICITY":0.00015554,"INCLINATION":53.1203,"RA_OF_ASC_NODE":99.8001,"ARG_OF_PERICENTER":84.4684,"MEAN_ANOMALY":239.4047,"EPHEMERIS_TYPE":0,"CLASSIFICATION_TYPE":"U","NORAD_CAT_ID":48320,"ELEMENT_SET_NO":999,"REV_AT_EPOCH":574,"BSTAR":0.039856739,"MEAN_MOTION_DOT":0.00990666,"MEAN_MOTION_DDOT":0},{"OBJECT_NAME":"YAOGAN-43 01F","OBJECT_ID":"2024-148F","EPOCH":"2026-03-10T00:23:08.877408","MEAN_MOTION":15.29824616,"ECCENTRICITY":0.00057048,"INCLINATION":34.9925,"RA_OF_ASC_NODE":59.8891,"ARG_OF_PERICENTER":18.4862,"MEAN_ANOMALY":341.6062,"EPHEMERIS_TYPE":0,"CLASSIFICATION_TYPE":"U","NORAD_CAT_ID":60463,"ELEMENT_SET_NO":999,"REV_AT_EPOCH":8707,"BSTAR":0.00058388219,"MEAN_MOTION_DOT":0.00017308,"MEAN_MOTION_DDOT":0}]
